#dP2020  2 27  0  0  0.00000000      96 __u+U ITR00 FIT  IAC
## 2094 345600.00000000   900.00000000 58906 0.0000000000000
+  106   C06C07C08C09C10C11C12C13C14C16C19C20C21C22C23C24C25
+        C26C27C28C29C30C32C33C34C35C36C37E01E02E03E04E05E07
+        E08E09E11E12E13E14E15E18E19E21E24E25E26E27E30E31E33
+        E36G01G02G03G04G05G06G07G08G09G10G11G12G13G14G15G16
+        G17G18G19G20G21G22G23G24G25G26G27G28G29G30G31G32R01
+        R02R03R04R05R07R08R09R11R12R13R14R15R16R17R18R19R20
+        R21R22R23R26  0  0  0  0  0  0  0  0  0  0  0  0  0
++         9  8  9  8  8  8  8  8  8  8  7  7  8  8  8  8  8
++         8  8  8  8  8  8  8  8  8  8  8  5  4  4  4  4  4
++         4  4  4  4  4  4  5  5  4  5  4  4  5  4  4  4  4
++         5  3  3  4  4  4  3  4  3  4  4  3  3  4  4  4  3
++         3  4  3  4  4  4  4  3  4  4  4  3  4  3  4  3  6
++         5  5  5  5  5  6  5  5  5  6  6  6  6  6  6  6  6
++         5  5  6  8  0  0  0  0  0  0  0  0  0  0  0  0  0
%c M  cc GPS ccc cccc cccc cccc cccc ccccc ccccc ccccc ccccc
%c cc cc ccc ccc cccc cccc cccc cccc ccccc ccccc ccccc ccccc
%f  0.0000000  0.000000000  0.00000000000  0.000000000000000
%f  0.0000000  0.000000000  0.00000000000  0.000000000000000
%i    0    0    0    0      0      0      0      0         0
%i    0    0    0    0      0      0      0      0         0
/* INFORMATION & ANALYSIS CENTER (IAC)      ULTRA-RAPID DATA
/* S/V CLOCKS ARE ALIGNED TO GNSS TIME                      
/* G:C1WC2W R:C1PC2P E:C1XC5X C:C2IC6I J:C1CC2S             
/* PCV:IGS14_2091 OL/AL:FES2004  NONE     YN ORB:CoN CLK:CoN
*  2020 02 27 16 30  0.00000000
PC06 -23983.756349  32404.187751 -12672.709549    242.694924
PC07  -9210.822233  34236.535176 -22258.026931   -103.539683
PC08 -13778.545381  17930.616121  35642.517159   -133.821388
PC09 -12798.319417  32004.816299 -24292.169889    364.085939
PC10   1377.107839  40231.861318 -11637.815248   -702.369517
PC11  -4227.814679 -14778.957479 -23228.959828   -207.928457
PC12  15625.927306 -17615.830891 -14952.817063    324.434398
PC13   1266.978469  24125.115339  34685.028619    292.067597
PC14  -4159.328876 -25922.408434   9566.927523    189.656496
PC16 -20470.025418  33111.258791 -16416.504305   -754.955082
PC19   9855.011302  19895.207243 -16871.997027    337.164038
PC20  -1755.788328  27802.337736  -1364.157527   -777.988987
PC21  12738.868425 -19430.795791 -15450.899793   -118.082085
PC22  15976.051627    235.418191 -22873.930502   -895.847858
PC23 -24079.493893  -7040.407668 -12219.455712   -903.661747
PC24  -3554.965434 -19758.006662  19360.814105   -928.293472
PC25 -20408.640203 -18416.925272   4734.709386   -530.319498
PC26  13654.278103  -9730.281800  22304.683267    587.021953
PC27 -22636.764233  14809.134566   6895.046098    285.913703
PC28 -25634.258546   2921.863807 -10623.792195    276.855902
PC29  14071.236770  10115.713892  21869.774875    193.609207
PC30  -6004.346930  18296.456296  20209.114552    278.531583
PC32 -12626.136654  19498.580516  15475.112085   -880.696367
PC33  -9957.987891 -19913.416636  16840.979637   -937.269487
PC34   5553.629608 -18227.237451 -20379.335494   -504.361656
PC35  25479.244896  -3634.284557  10744.537527   -920.962557
PC36  19866.056142  18964.688693  -4923.694924   -825.771101
PC37 -14351.867703   8948.721426 -22180.475313 999999.999999
PE01   2886.465096  25390.832813 -14948.805487   -803.681422
PE02  -2944.120582 -25403.713835  14884.174074    115.673381
PE03   8158.977512 -26883.516902   9339.065480   -270.955892
PE04   7814.494433  17848.125320 -22280.791877   -474.362906
PE05  19523.606111 -20246.763921  -9224.003584   -401.791765
PE07 -19406.957630   1822.307389  22278.378982   -346.855268
PE08  -7969.096041 -17576.572459  22447.667853   6214.311057
PE09  19310.691979  -2130.827521 -22333.054242   6142.670896
PE11  29305.532092   2221.150220   3433.564877   1467.148042
PE12  17383.553672  13188.789862  20000.747499   5930.480881
PE13 -29290.975634  -2230.067609  -3666.885643    398.743967
PE14  20713.855389  -3111.793310  13165.476320   -920.862916
PE15 -17668.476876 -12951.244130 -19895.514116    875.816495
PE18 -21880.388505  -5888.543207 -22219.842956  -1018.526591
PE19  -9758.610426  26933.000064  -7461.683242     -1.357505
PE21 -12102.568641  11601.669161 -24400.852551   -585.016288
PE24  20192.730172   9350.483226  19517.122653   5588.064558
PE25  12180.742862 -11480.097986  24413.344614   -505.145015
PE26 -23573.636385   9913.750088  14918.053122   3480.620893
PE27 -20193.044170  -9125.715233 -19620.307084    273.437830
PE30 -16181.405325 -24572.981234  -3166.346276   4109.611071
PE31  16400.074978  24418.174614   3340.585152   -471.848568
PE33  -4360.299180  16088.603026  24474.676770   -469.997359
PE36  23737.106534  -9793.275705 -14704.592731    592.868071
PG01 -19118.647945 -14414.522227 -12053.753297   -308.621294
PG02  -3340.990211  15220.307455  22152.342537   -412.442565
PG03 -13036.904685 -19923.306388  11812.758377   -104.637796
PG04 -11814.132004  -9809.767391  21680.903435    -54.819632
PG05   1131.619381  25287.568897   7570.435253     -8.269719
PG06 -15678.645120   9006.841991  19525.751667   -218.673011
PG07 -25956.943251  -5333.857388  -3850.895421   -223.914858
PG08  -1767.339081 -17310.218776 -19964.534231    -25.248988
PG09 -19227.326096    533.750135  18270.439078   -164.983345
PG10  13049.816823  -8828.255875 -21266.745058   -259.558075
PG11  -9208.819905 -14622.185280 -20610.662532   -349.139586
PG12  10079.485479  22687.215507   9449.079205    146.595448
PG13  -7355.639197  19442.305076 -16607.919697     -9.752469
PG14  17802.983671 -18936.124207   5291.120095    -29.762195
PG15   4796.210231  17167.378704 -19890.938711   -248.653049
PG16   1291.366127 -25233.752892   7180.179495   -129.130573
PG17 -21781.111888  14323.030556  -4514.105389    223.151327
PG18 -11736.465598 -16036.505078 -18170.487382      4.647139
PG19 -19966.996875  17295.883415   2476.769852   -192.969817
PG20  17092.942919   2793.786134 -20269.219589    527.870681
PG21  25744.030600   2707.839716  -4496.451022    -35.151383
PG22 -10798.002453 -24058.743332   3881.946987   -785.146789
PG23 -13469.112658  -8680.089974  21576.332446   -133.432882
PG24  17962.571967  14569.652744 -13566.803414     -9.644974
PG25  15368.434268  12437.889674  17632.644179    -11.488271
PG26   6298.664177 -20295.975164  15762.200497    156.920483
PG27   8821.141211 -20903.748150 -13650.196117   -223.333689
PG28 -12622.630176   9912.349034 -20604.659304    736.480511
PG29  18106.893989   1723.290446  19326.437044    -43.489436
PG30 -22406.509848   3186.531896 -14032.301316   -163.109553
PG31  13798.131821 -10417.372930  20245.825058    -25.987553
PG32  20934.273921 -15574.375791  -4470.960986    223.108910
PR01 -12203.631943   4334.392857  21974.552460     57.728502
PR02 -10394.190363  22065.969682   7601.127626    414.059583
PR03  -2058.606385  23447.857130  -9851.537909     10.651840
PR04   7227.737476  11373.467914 -21633.186589     40.179701
PR05  12431.019768  -7056.479638 -21111.154094     45.774479
PR07   1682.769259 -23180.862622  10498.856354    -33.729909
PR08  -7350.330171 -11409.215743  21646.716606    -50.751334
PR09   1843.697952 -13411.462679  21642.805713    119.045701
PR11 -18913.421399 -16463.190945  -4788.490190    -14.922679
PR12 -16584.099296  -4482.323991 -18822.829241    109.378601
PR13  -4527.719549  10800.801952 -22682.594775    -35.350470
PR14   9946.818717  19548.934727 -13009.698056     48.570527
PR15  18646.441282  16954.097681   3984.914409    106.011613
PR16  16655.304639   3800.362690  18966.952390     -1.744722
PR17   -692.463173  10967.068365  23031.591234    304.568350
PR18  16383.716069   4947.110402  18909.150317     26.599186
PR19  24850.504967  -2940.314923   4946.319416    -81.159711
PR20  18546.952779 -10284.905022 -14122.379354   -405.205624
PR21   -178.442829 -10711.388880 -23143.984954   -107.718758
PR22 -18683.158642  -3588.662462 -17049.591105    -15.703774
PR23 -24643.216677   6395.036309   1636.000185    289.122795
PR26  21201.766143  -9663.115911 -10391.253950   -405.509817
EOF
